COSMOS 2426 (717)       
1 29671U 06062B   20117.47902490  .00000026  00000-0  10000-3 0  9997
2 29671  64.9884 269.6662 0019911 170.4599 191.7865  2.12962331103795
COSMOS 2433 (720)       
1 32275U 07052A   20117.32618903 -.00000052  00000-0  10000-3 0  9998
2 32275  65.9659  30.6569 0003326 284.3878  73.7082  2.13104248 97293
COSMOS 2432 (719)       
1 32276U 07052B   20117.33235878 -.00000052  00000-0  10000-3 0  9996
2 32276  65.9777  30.7443 0012007 331.8477 341.2917  2.13103739 97290
COSMOS 2434 (721)       
1 32393U 07065A   20117.47813313  .00000025  00000-0  00000-0 0  9996
2 32393  64.5934 268.1994 0005011  90.0258 272.1604  2.13102999 96017
COSMOS 2436 (723)       
1 32395U 07065C   20117.34896191  .00000024  00000-0  10000-3 0  9992
2 32395  64.6006 268.2537 0014621   7.9885  31.3585  2.13102933 95946
COSMOS 2456 (730)       
1 36111U 09070A   20117.46735377  .00000072  00000-0  00000-0 0  9990
2 36111  64.2221 147.8715 0005834 305.7183 221.6098  2.13102829 80678
COSMOS 2457 (733)       
1 36112U 09070B   20117.22072381  .00000072  00000-0  00000+0 0  9993
2 36112  64.2035 147.7751 0004935 190.4853 271.1621  2.13101481 80670
COSMOS 2459 (731)       
1 36400U 10007A   20117.16170586 -.00000053  00000-0  10000-3 0  9999
2 36400  65.8680  29.6404 0027205 349.4871  97.6525  2.13105156 79021
COSMOS 2461 (735)       
1 36401U 10007B   20117.39897514 -.00000053  00000-0  10000-3 0  9992
2 36401  65.8613  29.6020 0007941  52.7339 125.1181  2.13102339 79025
COSMOS 2460 (732)       
1 36402U 10007C   20117.34490227 -.00000053  00000-0  10000-3 0  9998
2 36402  65.8507  29.5644 0001764 346.2166 189.3759  2.13101393 79027
COSMOS 2464 (736)       
1 37139U 10041C   20117.21982068  .00000023  00000-0  00000-0 0  9991
2 37139  64.1949 267.6758 0027133  14.9672  13.0488  2.13100675 75094
COSMOS 2474 (742)       
1 37829U 11055A   20117.32564502  .00000072  00000-0  00000+0 0  9997
2 37829  64.5419 148.8805 0010255 248.6928  24.9129  2.13101746 66662
COSMOS 2476 (744)       
1 37867U 11064A   20117.37391339  .00000072  00000-0  00000-0 0  9991
2 37867  64.5228 148.9244 0021104 241.8479 115.0267  2.13101902 66019
COSMOS 2477 (745)       
1 37868U 11064B   20117.52680679  .00000072  00000-0  00000-0 0  9997
2 37868  64.5299 148.9755 0018703 243.4736  49.2229  2.13101826 65975
COSMOS 2475 (743)       
1 37869U 11064C   20117.43293628  .00000072  00000-0  00000-0 0  9992
2 37869  64.5367 148.9787 0023110 263.1606 274.8503  2.13101958 65988
COSMOS 2485 (747)       
1 39155U 13019A   20117.47869110  .00000072  00000-0  00000-0 0  9993
2 39155  64.6893 149.1779 0021426 237.6644 244.1787  2.13101902 54490
COSMOS 2492 (754)       
1 39620U 14012A   20117.50613722 -.00000053  00000-0  10000-3 0  9998
2 39620  65.7405  29.3471 0015298 327.0326 210.9632  2.13103253 47445
COSMOS 2500 (755)       
1 40001U 14032A   20117.27704653 -.00000053  00000-0  00000-0 0  9999
2 40001  65.6821  29.2759 0005065 219.4870   3.4239  2.13102674 45653
COSMOS 2501 (702K)      
1 40315U 14075A   20117.11875764  .00000021  00000-0  00000-0 0  9993
2 40315  63.9119 268.6428 0015383 203.5876  53.2962  2.13098570 42054
COSMOS 2514 (751)       
1 41330U 16008A   20116.98261942 -.00000055  00000-0  00000-0 0  9998
2 41330  65.4843  29.1720 0008745 224.7377 314.6257  2.13103044 32810
COSMOS 2516 (753)       
1 41554U 16032A   20117.34144897  .00000023  00000-0  00000-0 0  9997
2 41554  64.1352 268.6920 0011125 211.9624 133.4349  2.13101643 30427
COSMOS 2522 (752)       
1 42939U 17055A   20117.08645595  .00000022  00000-0  00000-0 0  9992
2 42939  64.3683 268.8655 0005375 245.1152 131.2311  2.13101918 20188
COSMOS 2527 (756)       
1 43508U 18053A   20117.33552516  .00000073  00000-0  00000-0 0  9998
2 43508  64.8541 149.0194 0008957 242.0488 357.1005  2.13102645 14476
COSMOS 2529 (757)       
1 43687U 18086A   20117.21606188  .00000023  00000-0  00000+0 0  9998
2 43687  64.5819 268.9686 0007951 275.7453 155.6483  2.13102030 11492
COSMOS 2534 (758)       
1 44299U 19030A   20117.42957564  .00000025  00000-0  00000-0 0  9991
2 44299  64.6494 268.7721 0011385 295.8420  74.4176  2.13101969  7147
